#dP2023 11  4  0  0  0.00000000     289 d+D   IGS20 FIT AIUB
## 2286 518400.00000000   300.00000000 60252 0.0000000000000
+  118   G01G02G03G04G05G06G07G08G09G10G11G12G13G14G15G16G17
+        G18G19G20G21G22G23G24G25G26G27G28G29G30G31G32R01R02
+        R03R04R05R07R08R09R11R12R13R14R15R16R17R18R19R20R21
+        R22R24R25R26E02E03E04E05E07E08E09E10E11E12E13E15E19
+        E21E24E25E26E27E30E31E33E34E36C06C07C08C09C10C11C12
+        C13C14C16C19C20C21C22C23C24C25C26C27C28C29C30C32C33
+        C34C35C36C37C38C39C40C41C42C43C44C45C46J02J03J04  0
++         5  5  5  5  5  5  5  5  5  5  5  5  5  5  6  5  5
++         5  5  5  5  5  5  5  5  5  5  5  5  5  5  5  5  5
++         5  5  5  5  5  5  5  6  5  6  6  5  5  5  5  5  5
++         5  5  5  6  5  5  5  5  5  5  5  5  5  5  5  5  5
++         5  5  5  5  5  5  5  5  5  5  5  5  5  5  5  5  5
++         5  5  5  5  5  5  5  5  5  5  5  5  5  5  5  5  5
++         5 10  5  5  5  5  5  5  5  5  5  5  5  5  5  5  0
%c M  cc GPS ccc cccc cccc cccc cccc ccccc ccccc ccccc ccccc
%c cc cc ccc ccc cccc cccc cccc cccc ccccc ccccc ccccc ccccc
%f  1.2500000  1.025000000  0.00000000000  0.000000000000000
%f  0.0000000  0.000000000  0.00000000000  0.000000000000000
%i    0    0    0    0      0      0      0      0         0
%i    0    0    0    0      0      0      0      0         0
/* Center for Orbit Determination in Europe (CODE)                              
/* MGEX orbits and clocks for year-day 2023-3080                                
/* Middle day of a 3-day long-arc multi-GNSS solution                           
/* Systems considered: GPS/GLONASS/Galileo/BeiDou/QZSS                          
/* Product reference - DOI 10.7892/boris.75882.3                                
/* PCV:IGS20      OL/AL:FES2014b NONE     YN ORB:CoN CLK:CoN                    
*  2023 11  4  3  0  0.00000000
PG01  13650.432593 -15891.510619  15772.978427    163.244128
PG02  14831.943190  -9888.191416  20135.247075   -533.553448
PG03  22710.028278 -12412.494372  -5850.920393    -37.242770
PG04  13517.385441  -7912.798831 -21457.774185    203.171471
PG05 -24993.633547   4373.742526  -8194.665489   -149.042525
PG06  -7116.359216 -19719.966368 -16181.584218    514.915970
PG07   5098.440043 -25769.218422   -741.429601     22.688732
PG08  20144.543416    196.546572  17436.778191   -150.422867
PG09   3324.717608 -16180.986988 -20877.274818    -13.261639
PG10   6068.574902  13588.829873  22194.213679    -60.004798
PG11 -13305.722344  -8284.307252 -21427.933105   -444.861270
PG12 -24218.566267  10053.663037  -4247.101961   -443.186239
PG13 -20992.143345 -10807.190507  12174.758851    591.442653
PG14  -1912.024677 -15593.608261  21424.268732    233.243573
PG15 -19547.496582   3055.972555  17333.413376     93.669434
PG16  23679.293229   2631.620032 -12519.307272   -428.116436
PG17  -9822.158867 -21310.833481  12754.961689    723.518573
PG18  -4657.515811  26039.711940    593.385833   -468.878145
PG19 -16392.993888 -20750.024841   3821.054624    394.097909
PG20 -19266.165762  -3562.721209 -17800.107692    403.424201
PG21  15375.679621  -5380.034537  21315.393103    145.172156
PG22  -8908.193237 -13217.522801  21657.516259     90.419725
PG23  -7933.653766  16876.566599  18850.263820     93.157166
PG24 -14604.363435  11519.180760  18409.057294   -362.799388
PG25 -14951.109733  16677.276566 -14385.546417    475.823184
PG26  17127.383852   7746.231214 -19026.305330    219.011018
PG27  22639.304816  12006.539662   7503.371421    -64.965812
PG28   7174.223496  21150.480543 -14401.044657    -38.606181
PG29  -4762.743081  15407.257304 -21127.827734   -610.229005
PG30  -2027.582531 -24908.199625   8717.785770   -471.914108
PG31  11782.240789  13136.729834 -19923.363938   -225.382938
PG32  14481.032281  20402.745093   9398.776575   -581.431076
PR01 -14053.567314   6150.306317  20375.998132     69.019624
PR02   4453.628583  12224.786124  21991.909647    -22.396900
PR03  20134.524933  11526.518641  10717.009606     88.318470
PR04  24297.278859   4750.947974  -6166.339898    209.586941
PR05  15487.744137  -4634.112101 -19737.659244    121.644937
PR07 -20596.634189 -11275.711627  -9861.227670     68.305079
PR08 -24275.832744  -4374.187081   6470.182359    -73.202095
PR09   6810.950260 -18169.161781  16530.439662    151.253536
PR11 -17872.501764   5676.832374  17309.961564   -210.721268
PR12 -18529.130549  17517.245654   -222.412445     33.021208
PR13  -8993.577746  18591.017099 -14982.891049    -40.949554
PR14   7766.738562   7974.841910 -22939.134973     25.473051
PR15  18491.935163  -6591.156359 -16266.105661     84.902527
PR16  18497.139034 -17539.877751    -34.010704     20.256248
PR17  10126.265197  19896.487790  12309.955722     31.693655
PR18  11315.826055   4904.151010  22356.822537    110.161284
PR19   7793.181567 -11107.075060  21608.760952   -253.396387
PR20  -1644.058064 -24722.811267   6007.218503   -102.958302
PR21 -10113.891130 -19543.446294 -12923.743511    -50.717181
PR22 -11453.098407  -4054.637311 -22396.757946     91.814410
PR24   2807.323666  24774.754141  -5306.883557    -30.828716
PR25  -9410.456515 -20342.130770 -12193.471273     -6.533306
PR26 -24420.036854  -4565.398480   5841.107726    -18.191870
PE02   -957.091621  17696.135323 -23706.641947     75.507869
PE03   9770.683485  22772.193280  16173.258864    -70.842335
PE04 -23373.977883 -18112.641382   1304.861141   -249.465519
PE05  -9413.955609  14222.400878  24187.434089     33.977222
PE07  23415.864601   3112.103325 -17837.918791    -85.922935
PE08  23181.260573  18383.604955   -796.201560   -171.612997
PE09 -23413.047948  -3315.651305  17804.668832   -215.161888
PE10 -15182.132531  -5675.129865 -24770.153604   -576.200944
PE11 -16598.014158   6703.196416 -23579.555342   3170.167370
PE12 -11732.514094 -15922.556770 -22017.841070   -762.908129
PE13  16519.557054  -5900.982196  23850.367185    -19.609036
PE15  11467.149223  16372.236346  21840.261972    -66.621956
PE19  -7406.631734 -22344.528790 -17943.491881  -1287.385100
PE21  20036.946772 -17196.399416  13385.473760   -562.329981
PE24 -28372.671313   6169.142076   5676.711532   -412.323245
PE25 -20330.322424  17075.070800 -13072.691339     -3.735908
PE26  11620.064577 -24807.389970  11236.373456    270.700554
PE27  28378.991934  -6645.120836  -5197.892766   -191.148238
PE30  19613.872500   8052.829882 -20668.737871   -633.688981
PE31 -19893.247375  -7716.523750  20521.477046     -9.353468
PE33    638.168504 -28881.814639  -6479.532985      1.632377
PE34   -174.990530  28733.782756   7071.455411    -76.026560
PE36 -11833.786030  24390.425745 -11876.550283   -139.163674
PC06  -5107.211183  39869.262009  13215.632429     83.729228
PC07  -9218.763617  25910.124096 -31882.594019   -263.107130
PC08 -20142.004704  30702.038816  20521.479501    260.369040
PC09   -957.436759  42190.176415   5310.711310    -43.863297
PC10    318.106504  27835.425236 -31266.472057     -4.534070
PC11  12982.597706  24171.921909   5098.897182    237.995162
PC12    684.231977  24710.414417 -12890.129880    872.015307
PC13 -13527.381584  31218.844105  24860.515352    377.498817
PC14  16898.699432  13865.338066  17324.201829    715.096868
PC16  -7871.798651  37811.814360  17533.442938   -158.126520
PC19 -24283.651922  -9596.198178  -9854.159646   -974.883242
PC20  -8831.188314 -15631.735141 -21367.938435    147.139461
PC21 -13435.473177  12687.682495  20921.571964   -969.141059
PC22 -26659.302482   2242.073935   7960.322328   -239.390463
PC23  21064.956901  -8852.780345 -16024.272466   -829.083883
PC24  -2389.704770  22637.423073 -16137.575545    561.315780
PC25  13876.091793   8595.947133 -22645.525748    247.705814
PC26 -15608.892023  23089.858309   -944.249891   -201.242613
PC27   5903.121896 -19819.635751  18719.538452    223.011528
PC28  15799.502814  -3415.749884  22756.228328    168.108553
PC29 -17886.684038 -17145.087969 -12843.335930    196.617620
PC30  -8227.536118 -26172.996807   5051.500923     -7.721476
PC32  13444.050952 -12755.125214 -20856.259533   -532.820466
PC33  24256.453090   9522.715007   9966.734636   -947.544169
PC34   9211.298513  26097.657000  -3655.787171    295.657101
PC35 -15668.482322   4202.418651 -22711.217244    510.636625
PC36 -13057.698605  -9766.333497  22666.175746   -149.896955
PC37  16559.169470 -22481.174677    232.470300   -874.575653
PC38 -24809.413746  31631.702613  12457.700781    115.409806
PC39  -8548.822660  35375.317881  21542.922269     -5.553746
PC40 -13563.391962  19405.301757 -34888.762585    -42.674105
PC41  26885.136664  -1841.016809  -7197.730650   -871.532292
PC42   7079.907729  15829.662185  21894.538166   -506.776886
PC43  17702.246075  17893.194762  12063.155767     46.742961
PC44  -5396.800409  19963.674570 -18757.911224    282.016976
PC45 -21062.715087   9377.186280  15699.196965    -42.768042
PC46   1543.157585 -22141.375366  16936.179729    -97.064356
PJ02 -34627.523628  18864.293654 -10295.672620     -0.079334
PJ03 -20333.058319  28851.604344 -18428.755516     -7.080556
PJ04 -28174.974016  27317.530659  21417.858789     71.912428
EOF
